{
  "type": "FeatureCollection",
  "features": [
    {
      "type": "Feature",
      "properties": {
        "norad_id": 29922,
        "name": "FENGYUN 1C DEB",
        "group": "fengyun-1c-debris",
        "lat": 67.76075103944159,
        "lon": 32.02829814962475,
        "alt_km": 895.1922445874625,
        "timestamp": "2025-12-23T18:59:32.240276+00:00",
        "meta_object_name": "FENGYUN 1C DEB",
        "meta_object_id": "1999-025HU",
        "meta_epoch": "2025-12-23T03:12:39.969216",
        "meta_mean_motion": 13.98583064,
        "meta_eccentricity": 0.00925811,
        "meta_inclination": 99.1335,
        "meta_ra_of_asc_node": 54.5422,
        "meta_arg_of_pericenter": 338.2875,
        "meta_mean_anomaly": 21.4374,
        "meta_ephemeris_type": 0,
        "meta_classification_type": "U",
        "meta_norad_cat_id": 29922,
        "meta_element_set_no": 999,
        "meta_rev_at_epoch": 96586,
        "meta_bstar": 7.9218111e-05,
        "meta_mean_motion_dot": 7.3e-07,
        "meta_mean_motion_ddot": 0,
        "tle_line1": "1 29922U 99025HU  25357.13379594  .00000073  00000+0  79218-4 0  9992",
        "tle_line2": "2 29922  99.1335  54.5422 0092581 338.2875  21.4374 13.98583064965861"
      },
      "geometry": {
        "type": "Point",
        "coordinates": [
          32.02829814962475,
          67.76075103944159
        ]
      }
    },
    {
      "type": "Feature",
      "properties": {
        "norad_id": 29923,
        "name": "FENGYUN 1C DEB",
        "group": "fengyun-1c-debris",
        "lat": 21.346749805793586,
        "lon": -170.80197467463805,
        "alt_km": 833.575209941082,
        "timestamp": "2025-12-23T18:59:32.240285+00:00",
        "meta_object_name": "FENGYUN 1C DEB",
        "meta_object_id": "1999-025HV",
        "meta_epoch": "2025-12-22T19:18:43.083648",
        "meta_mean_motion": 14.13909581,
        "meta_eccentricity": 0.00179836,
        "meta_inclination": 98.6878,
        "meta_ra_of_asc_node": 4.8133,
        "meta_arg_of_pericenter": 141.2485,
        "meta_mean_anomaly": 37.5072,
        "meta_ephemeris_type": 0,
        "meta_classification_type": "U",
        "meta_norad_cat_id": 29923,
        "meta_element_set_no": 999,
        "meta_rev_at_epoch": 97417,
        "meta_bstar": 0.00039954002,
        "meta_mean_motion_dot": 7.16e-06,
        "meta_mean_motion_ddot": 0,
        "tle_line1": "1 29923U 99025HV  25356.80466532  .00000716  00000+0  39954-3 0  9991",
        "tle_line2": "2 29923  98.6878   4.8133 0017983 141.2485  37.5072 14.13909581974178"
      },
      "geometry": {
        "type": "Point",
        "coordinates": [
          -170.80197467463805,
          21.346749805793586
        ]
      }
    },
    {
      "type": "Feature",
      "properties": {
        "norad_id": 29924,
        "name": "FENGYUN 1C DEB",
        "group": "fengyun-1c-debris",
        "lat": -64.92145686024588,
        "lon": 29.582297057941688,
        "alt_km": 863.2853129591376,
        "timestamp": "2025-12-23T18:59:32.240294+00:00",
        "meta_object_name": "FENGYUN 1C DEB",
        "meta_object_id": "1999-025HW",
        "meta_epoch": "2025-12-22T13:14:34.440864",
        "meta_mean_motion": 14.0889304,
        "meta_eccentricity": 0.00261293,
        "meta_inclination": 98.7338,
        "meta_ra_of_asc_node": 9.2047,
        "meta_arg_of_pericenter": 228.925,
        "meta_mean_anomaly": 260.8942,
        "meta_ephemeris_type": 0,
        "meta_classification_type": "U",
        "meta_norad_cat_id": 29924,
        "meta_element_set_no": 999,
        "meta_rev_at_epoch": 97346,
        "meta_bstar": 8.6145435e-05,
        "meta_mean_motion_dot": 1.07e-06,
        "meta_mean_motion_ddot": 0,
        "tle_line1": "1 29924U 99025HW  25356.55178751  .00000107  00000+0  86145-4 0  9996",
        "tle_line2": "2 29924  98.7338   9.2047 0026129 228.9250 260.8942 14.08893040973463"
      },
      "geometry": {
        "type": "Point",
        "coordinates": [
          29.582297057941688,
          -64.92145686024588
        ]
      }
    },
    {
      "type": "Feature",
      "properties": {
        "norad_id": 29926,
        "name": "FENGYUN 1C DEB",
        "group": "fengyun-1c-debris",
        "lat": 55.551822254484584,
        "lon": -26.031166967228486,
        "alt_km": 926.5812519597985,
        "timestamp": "2025-12-23T18:59:32.240303+00:00",
        "meta_object_name": "FENGYUN 1C DEB",
        "meta_object_id": "1999-025HY",
        "meta_epoch": "2025-12-23T05:38:47.258016",
        "meta_mean_motion": 14.33419487,
        "meta_eccentricity": 0.02478969,
        "meta_inclination": 98.284,
        "meta_ra_of_asc_node": 345.6988,
        "meta_arg_of_pericenter": 268.7804,
        "meta_mean_anomaly": 158.385,
        "meta_ephemeris_type": 0,
        "meta_classification_type": "U",
        "meta_norad_cat_id": 29926,
        "meta_element_set_no": 999,
        "meta_rev_at_epoch": 98731,
        "meta_bstar": 0.00027732605,
        "meta_mean_motion_dot": 1.026e-05,
        "meta_mean_motion_ddot": 0,
        "tle_line1": "1 29926U 99025HY  25357.23526919  .00001026  00000+0  27733-3 0  9995",
        "tle_line2": "2 29926  98.2840 345.6988 0247896 268.7804 158.3850 14.33419487987317"
      },
      "geometry": {
        "type": "Point",
        "coordinates": [
          -26.031166967228486,
          55.551822254484584
        ]
      }
    },
    {
      "type": "Feature",
      "properties": {
        "norad_id": 29927,
        "name": "FENGYUN 1C DEB",
        "group": "fengyun-1c-debris",
        "lat": 26.87255617556153,
        "lon": 18.4248927704095,
        "alt_km": 655.1717137526284,
        "timestamp": "2025-12-23T18:59:32.240312+00:00",
        "meta_object_name": "FENGYUN 1C DEB",
        "meta_object_id": "1999-025HZ",
        "meta_epoch": "2025-12-23T01:12:21.948192",
        "meta_mean_motion": 14.7491707,
        "meta_eccentricity": 0.00180346,
        "meta_inclination": 99.0822,
        "meta_ra_of_asc_node": 22.2437,
        "meta_arg_of_pericenter": 179.037,
        "meta_mean_anomaly": 235.7049,
        "meta_ephemeris_type": 0,
        "meta_classification_type": "U",
        "meta_norad_cat_id": 29927,
        "meta_element_set_no": 999,
        "meta_rev_at_epoch": 98799,
        "meta_bstar": 0.0030102082,
        "meta_mean_motion_dot": 0.00020258,
        "meta_mean_motion_ddot": 0,
        "tle_line1": "1 29927U 99025HZ  25357.05025403  .00020258  00000+0  30102-2 0  9999",
        "tle_line2": "2 29927  99.0822  22.2437 0018034 179.0370 235.7049 14.74917070987996"
      },
      "geometry": {
        "type": "Point",
        "coordinates": [
          18.4248927704095,
          26.87255617556153
        ]
      }
    },
    {
      "type": "Feature",
      "properties": {
        "norad_id": 29928,
        "name": "FENGYUN 1C DEB",
        "group": "fengyun-1c-debris",
        "lat": -64.30603780936633,
        "lon": 42.90885187842242,
        "alt_km": 1021.6697958674922,
        "timestamp": "2025-12-23T18:59:32.240322+00:00",
        "meta_object_name": "FENGYUN 1C DEB",
        "meta_object_id": "1999-025JA",
        "meta_epoch": "2025-12-23T00:25:33.174048",
        "meta_mean_motion": 13.88101444,
        "meta_eccentricity": 0.01430669,
        "meta_inclination": 99.5836,
        "meta_ra_of_asc_node": 21.5576,
        "meta_arg_of_pericenter": 75.8051,
        "meta_mean_anomaly": 315.5119,
        "meta_ephemeris_type": 0,
        "meta_classification_type": "U",
        "meta_norad_cat_id": 29928,
        "meta_element_set_no": 999,
        "meta_rev_at_epoch": 95634,
        "meta_bstar": 0.00062852807,
        "meta_mean_motion_dot": 7.67e-06,
        "meta_mean_motion_ddot": 0,
        "tle_line1": "1 29928U 99025JA  25357.01774507  .00000767  00000+0  62853-3 0  9994",
        "tle_line2": "2 29928  99.5836  21.5576 0143066  75.8051 315.5119 13.88101444956340"
      },
      "geometry": {
        "type": "Point",
        "coordinates": [
          42.90885187842242,
          -64.30603780936633
        ]
      }
    },
    {
      "type": "Feature",
      "properties": {
        "norad_id": 29929,
        "name": "FENGYUN 1C DEB",
        "group": "fengyun-1c-debris",
        "lat": -34.36788702827121,
        "lon": -77.60970855755983,
        "alt_km": 990.8677596007019,
        "timestamp": "2025-12-23T18:59:32.240331+00:00",
        "meta_object_name": "FENGYUN 1C DEB",
        "meta_object_id": "1999-025JB",
        "meta_epoch": "2025-12-23T00:23:24.546048",
        "meta_mean_motion": 14.01390252,
        "meta_eccentricity": 0.01317182,
        "meta_inclination": 98.6246,
        "meta_ra_of_asc_node": 275.6999,
        "meta_arg_of_pericenter": 147.3905,
        "meta_mean_anomaly": 229.7336,
        "meta_ephemeris_type": 0,
        "meta_classification_type": "U",
        "meta_norad_cat_id": 29929,
        "meta_element_set_no": 999,
        "meta_rev_at_epoch": 96100,
        "meta_bstar": 0.00093672522,
        "meta_mean_motion_dot": 1.484e-05,
        "meta_mean_motion_ddot": 0,
        "tle_line1": "1 29929U 99025JB  25357.01625632  .00001484  00000+0  93673-3 0  9990",
        "tle_line2": "2 29929  98.6246 275.6999 0131718 147.3905 229.7336 14.01390252961000"
      },
      "geometry": {
        "type": "Point",
        "coordinates": [
          -77.60970855755983,
          -34.36788702827121
        ]
      }
    }
  ]
}